NAVSTAR 48 (USA 151)    
1 26407U 00040A   26189.47267707  .00000104  00000+0  00000+0 0  9992
2 26407  54.8493 214.3168 0120645 302.6616 229.9611  2.00557791190377
NAVSTAR 51 (USA 166)    
1 27663U 03005A   26189.28717777  .00000103  00000+0  00000+0 0  9996
2 27663  54.8799 214.1304 0148142  53.1344 121.7164  2.00559384171730
NAVSTAR 54 (USA 177)    
1 28190U 04009A   26189.36503007 -.00000020  00000+0  00000+0 0  9994
2 28190  54.8121 274.8310 0116954 174.0325 209.7158  2.00553955163372
NAVSTAR 56 (USA 180)    
1 28474U 04045A   26188.74244983 -.00000072  00000+0  00000+0 0  9992
2 28474  55.1231 324.0687 0170056 316.8842  42.3770  2.00556754158848
NAVSTAR 57 (USA 183)    
1 28874U 05038A   26189.39091869 -.00000014  00000+0  00000+0 0  9990
2 28874  54.8609 272.3211 0128129 296.3320 135.5610  2.00564164152264
INMARSAT 4-F2           
1 28899U 05044A   26189.52795220 -.00000250  00000+0  00000+0 0  9993
2 28899   5.1211  43.6459 0003012  55.2734 161.1124  1.00271834 75735
NAVSTAR 58 (USA 190)    
1 29486U 06042A   26188.67658140  .00000079  00000+0  00000+0 0  9997
2 29486  54.7126 150.5255 0106975  54.9415 119.9754  2.00568657144807
NAVSTAR 59 (USA 192)    
1 29601U 06052A   26189.35918528  .00000105  00000+0  00000+0 0  9992
2 29601  54.9329 213.1669 0084812  90.9771 270.0548  2.00559276143837
NAVSTAR 60 (USA 196)    
1 32260U 07047A   26189.16606589 -.00000035  00000+0  00000+0 0  9995
2 32260  54.1103  79.2010 0167551  87.8321 274.1296  2.00554223137232
COSMOS 2433 [GLONASS-M] 
1 32275U 07052A   26187.62445233 -.00000046  00000+0  00000+0 0  9995
2 32275  65.5650 315.2799 0003185 201.3457 158.6520  2.13104455145476
COSMOS 2432 [GLONASS-M] 
1 32276U 07052B   26188.59810169 -.00000049  00000+0  00000+0 0  9990
2 32276  65.5804 315.3755 0007481 325.2447   5.5151  2.13103453145511
NAVSTAR 61 (USA 199)    
1 32384U 07062A   26189.45595171 -.00000016  00000+0  00000+0 0  9994
2 32384  55.0147 273.2970 0036006 167.0393 170.0598  2.00561245135934
COSMOS 2434 [GLONASS-M] 
1 32393U 07065A   26189.37121833  .00000126  00000+0  00000+0 0  9999
2 32393  64.3197 191.2012 0001271 326.7970 182.9996  2.13101416144229
COSMOS 2436 [GLONASS-M] 
1 32395U 07065C   26189.13069841  .00000125  00000+0  00000+0 0  9994
2 32395  64.3283 191.2816 0017280 353.5222 103.9798  2.13100210144172
NAVSTAR 62 (USA 201)    
1 32711U 08012A   26189.07543680  .00000074  00000+0  00000+0 0  9993
2 32711  54.4995 149.0904 0211609 248.0781 109.6420  2.00572926134179
NAVSTAR 64 (USA 206)    
1 35752U 09043A   26189.27386703 -.00000054  00000+0  00000+0 0  9998
2 35752  56.2235  26.6243 0053777  84.0912  67.3734  2.00553114123785
COSMOS 2456 [GLONASS-M] 
1 36111U 09070A   26189.16214819 -.00000024  00000+0  00000+0 0  9991
2 36111  65.0231  70.2570 0003836 336.8240 170.8468  2.13103862128874
COSMOS 2457 [GLONASS-M] 
1 36112U 09070B   26189.49444529 -.00000025  00000+0  00000+0 0  9992
2 36112  65.0088  70.0892 0003758 123.4428  46.3694  2.13101312128888
COSMOS 2460 [GLONASS-M] 
1 36402U 10007C   26189.50569010 -.00000053  00000+0  00000+0 0  9992
2 36402  65.4070 313.7457 0001829 134.0174  46.3781  2.13101790127181
NAVSTAR 65 (USA 213)    
1 36585U 10022A   26189.46104831  .00000110  00000+0  00000+0 0  9995
2 36585  54.2691 207.7050 0126595  66.1483 340.0151  2.00563411118021
BEIDOU-2 IGSO-1         
1 36828U 10036A   26188.62304566 -.00000058  00000+0  00000+0 0  9996
2 36828  54.3062 162.7756 0059224 225.1869 229.2421  1.00266308 58302
BEIDOU-2 G4             
1 37210U 10057A   26189.53120076 -.00000101  00000+0  00000+0 0  9997
2 37210   3.6964  68.8177 0005269 185.6172  23.2378  1.00270625 57507
BEIDOU-2 IGSO-2         
1 37256U 10068A   26189.60313632 -.00000203  00000+0  00000+0 0  9992
2 37256  47.5085 271.5668 0056755 213.3757 127.0514  1.00276139 57006
BEIDOU-2 IGSO-3         
1 37384U 11013A   26187.52460699 -.00000170  00000+0  00000+0 0  9993
2 37384  62.4337  39.9702 0035245 183.2519 357.0849  1.00262965 55850
GSAT-8                  
1 37605U 11022A   26189.58155433  .00000098  00000+0  00000+0 0  9992
2 37605   2.1831  81.5665 0002524 166.4494 302.9504  1.00271102 53438
BEIDOU-2 IGSO-4         
1 37763U 11038A   26187.84005391  .00000048  00000+0  00000+0 0  9993
2 37763  54.6039 165.4986 0160070 231.4311 284.4062  1.00281732 54844
GSAT0101 (GALILEO-PFM)  
1 37846U 11060A   26184.27277323 -.00000076  00000+0  00000+0 0  9992
2 37846  56.9888 341.3256 0002657  57.8189 302.2010  1.70475789 91394
GSAT0102 (GALILEO-FM2)  
1 37847U 11060B   26189.47708995 -.00000074  00000+0  00000+0 0  9992
2 37847  56.9877 341.1851 0002423  11.7755 347.8886  1.70475862 91489
COSMOS 2476 [GLONASS-M] 
1 37867U 11064A   26189.32821376 -.00000023  00000+0  00000+0 0  9995
2 37867  65.2814  72.1581 0022400 236.6261 306.7703  2.13103973114211
COSMOS 2477 [GLONASS-M] 
1 37868U 11064B   26188.15487328 -.00000020  00000+0  00000+0 0  9998
2 37868  65.2873  72.2772 0019396 237.9015 305.6247  2.13103195114184
COSMOS 2475 [GLONASS-M] 
1 37869U 11064C   26189.17546069 -.00000023  00000+0  00000+0 0  9993
2 37869  65.2947  72.2646 0025048 251.6541 309.8644  2.13101995114212
